RADUGA 1                
1 08513U 75123A   25107.95905023 -.00000089  00000+0  00000+0 0  9999
2 08513   3.9020 273.5627 0004909 263.6321  89.6302  1.00297073190546
RADUGA 2                
1 09416U 76092A   25107.55100875 -.00000185  00000+0  00000+0 0  9993
2 09416   4.5762 276.0746 0028732  28.0810 186.1617  1.00264973125065
RADUGA 3                
1 10159U 77071A   25107.87822573 -.00000108  00000+0  00000+0 0  9993
2 10159   5.2090 279.3429 0007975 283.1822  39.4934  1.00187681172772
RADUGA 4                
1 10987U 78073A   25107.61634278  .00000076  00000+0  00000+0 0  9993
2 10987   5.8685 283.7522 0010501  27.5080 171.8412  1.00337212115333
RADUGA 5                
1 11343U 79035A   25107.61929671 -.00000033  00000+0  00000+0 0  9997
2 11343   6.3597 287.1277 0003936 204.1721   7.7848  1.00249875125082
RADUGA 6                
1 11708U 80016A   25107.97316924 -.00000275  00000+0  00000+0 0  9991
2 11708   6.7628 290.8687 0001393 305.2751  55.1342  1.00328581117903
RADUGA 7                
1 12003U 80081A   25107.26856175  .00000132  00000+0  00000+0 0  9992
2 12003   6.9803 293.2168 0009973 304.8040 262.7172  1.00326684119033
RADUGA 8                
1 12351U 81027A   25107.81944819 -.00000361  00000+0  00000+0 0  9998
2 12351   7.3198 293.5914 0079498 260.8739  61.3283  1.00392253118274
RADUGA 9                
1 12618U 81069A   25107.95732882 -.00000152  00000+0  00000+0 0  9998
2 12618   7.5942 297.2739 0001880 158.8594 174.3582  1.00356201 43075
RADUGA 10               
1 12897U 81102A   25107.95732839 -.00000130  00000+0  00000+0 0  9993
2 12897   7.6993 298.4580 0003339 226.6400 105.6331  1.00250425113077
RADUGA 11               
1 13669U 82113A   25107.28857382 -.00000108  00000+0  00000+0 0  9996
2 13669  10.0487 314.0861 0040547 283.2680 275.9348  0.97709504117366
RADUGA 12               
1 13974U 83028A   25107.95513938 -.00000158  00000+0  00000+0 0  9996
2 13974   9.0775 309.3573 0001260  54.1511 267.9254  1.00290299165111
RADUGA 13               
1 14307U 83088A   25107.35580804 -.00000113  00000+0  00000+0 0  9994
2 14307  10.3509 315.4982 0017143  58.7711  75.7333  0.98174318114759
RADUGA 14               
1 14725U 84016A   25107.95461294 -.00000075  00000+0  00000+0 0  9994
2 14725   9.3961 313.6350 0002692 149.2148 160.7319  1.00245400113837
RADUGA 15               
1 15057U 84063A   25107.97472247 -.00000351  00000+0  00000+0 0  9994
2 15057   9.5483 314.6378 0003397 193.8635 155.6050  1.00353497136833
RADUGA 16               
1 15946U 85070A   25108.06241603 -.00000204  00000+0  00000+0 0  9998
2 15946  10.1577 319.5710 0001163 275.4711 269.0577  1.00170347117954
RADUGA 17               
1 16250U 85107A   25107.65415336 -.00000023  00000+0  00000+0 0  9997
2 16250  10.3296 321.0945 0012742 220.0394 146.5976  1.00128538147410
RADUGA 18               
1 16497U 86007A   25108.36822384 -.00000185  00000+0  00000+0 0  9993
2 16497  11.2080 323.9234 0071696 190.6003   4.5028  0.98815530141717
RADUGA 19               
1 17046U 86082A   25107.31897904 -.00000193  00000+0  00000+0 0  9990
2 17046  11.7835 328.0732 0011180 179.3139 169.0254  0.98462212138715
RADUGA 20               
1 17611U 87028A   25107.95335203 -.00000123  00000+0  00000+0 0  9991
2 17611  13.8889 331.2999 0028385 162.5477   9.8385  0.95961450134212
RADUGA 21               
1 18631U 87100A   25107.31457111  .00000115  00000+0  00000+0 0  9998
2 18631  11.9159 328.2964 0000968 195.8043   8.0893  1.00223281136810
RADUGA 22               
1 19596U 88095A   25107.98752567 -.00000350  00000+0  00000+0 0  9991
2 19596  12.0807 332.9922 0005760 180.2105 175.0854  1.00321228117441
RADUGA 23               
1 19928U 89030A   25107.71919647  .00000092  00000+0  00000+0 0  9997
2 19928  12.3013 334.8471 0019976 194.8174 345.0214  1.00346362130588
RADUGA-1 1              
1 20083U 89048A   25107.25451672 -.00000054  00000+0  00000+0 0  9997
2 20083  13.1691 338.0609 0019718 141.9166 208.3007  0.98709067127061
RADUGA 24               
1 20367U 89098A   25107.76025128  .00000121  00000+0  00000+0 0  9990
2 20367  12.9643 336.8321 0002217 260.9301 286.4985  1.00264055128707
RADUGA 25               
1 20499U 90016A   25107.42899906 -.00000264  00000+0  00000+0 0  9993
2 20499  12.7686 337.6521 0004039 195.9534 147.1169  1.00310409128632
RADUGA 26               
1 21016U 90112A   25107.89532675 -.00000266  00000+0  00000+0 0  9996
2 21016  13.2191 340.9028 0004391 117.3251 163.1815  1.00301119125999
RADUGA-1 2              
1 21038U 90116A   25107.95155640 -.00000015  00000+0  00000+0 0  9996
2 21038  13.2607 340.9476 0005423 133.4744 139.1028  1.00325416125642
RADUGA 27               
1 21132U 91014A   25107.84179340  .00000102  00000+0  00000+0 0  9996
2 21132  13.7382 340.0784 0000520 116.9571  72.3577  1.00247909125043
RADUGA 28               
1 21821U 91087A   25107.89396942 -.00000177  00000+0  00000+0 0  9998
2 21821  13.6803 344.1376 0005173 165.1363 103.9989  1.00185004122054
RADUGA 29               
1 22557U 93013A   25107.84062549  .00000050  00000+0  00000+0 0  9993
2 22557  14.0740 348.2730 0005092 158.1490  12.5476  1.00272603117410
RADUGA 30               
1 22836U 93062A   25107.99407943 -.00000047  00000+0  00000+0 0  9991
2 22836  14.2100 350.2967 0003745 309.5544 333.4903  1.00274232115500
RADUGA-1 3              
1 22981U 94008A   25107.97116750 -.00000044  00000+0  00000+0 0  9991
2 22981  14.3401 351.3993 0001390 164.1220 110.5996  1.00215536114245
RADUGA 31               
1 23010U 94012A   25107.89478080 -.00000247  00000+0  00000+0 0  9993
2 23010  14.3099 351.4110 0002421 144.1158 122.4929  1.00331346114086
RADUGA 32               
1 23448U 94087A   25107.97114326 -.00000055  00000+0  00000+0 0  9996
2 23448  14.4215 354.1655 0007128 247.4261  24.3695  1.00272611128610
RADUGA-1 4              
1 25642U 99010A   25107.76734409  .00000075  00000+0  00000+0 0  9993
2 25642  15.5261   5.1687 0005448 268.4652 260.2607  1.00337515 95688
RADUGA-1 5              
1 26477U 00049A   25107.89974213  .00000011  00000+0  00000+0 0  9997
2 26477  13.7265  11.1817 0002129  73.5086 146.7178  1.00333002 90155
RADUGA-1 6              
1 26936U 01045A   25107.82866569 -.00000063  00000+0  00000+0 0  9999
2 26936  14.2059  17.7337 0017817 198.4380 333.8225  0.97744152 84449
RADUGA-1 7              
1 28194U 04010A   25107.63169983 -.00000342  00000+0  00000+0 0  9997
2 28194  13.1845  24.0998 0003950 227.4006 311.1072  1.00286500 77155
RADUGA-1M 1             
1 32373U 07058A   25107.61427149 -.00000177  00000+0  00000+0 0  9991
2 32373   9.2245  55.7610 0002010 325.8212 216.0454  0.99401437 48160
RADUGA-1 8              
1 34264U 09010A   25107.36617288  .00000082  00000+0  00000+0 0  9993
2 34264  11.2798  45.6102 0011129  18.1170 147.7029  0.99818382 58910
RADUGA-1M 2             
1 36358U 10002A   25107.87559850 -.00000267  00000+0  00000+0 0  9994
2 36358   2.5084  84.2084 0006875 257.1089 326.6404  0.98970241 45813
RADUGA-1M 3             
1 39375U 13062A   25108.11214777  .00000165  00000+0  00000+0 0  9995
2 39375   4.8763  77.5944 0001010 267.9457 296.3191  1.00273019 41868
